{
  "norad_id": 54789,
  "name": "STARLINK-5446",
  "history": [
    {
      "epoch": "2026-03-28T20:20:21.916896",
      "apogee_km": 541.1561769292357,
      "perigee_km": 538.3760100340269,
      "latitude_deg": 42.62905230792908,
      "longitude_deg": 100.2576854401268,
      "semi_major_axis_km": 6917.903093481631,
      "eccentricity": 0.00020094,
      "inclination_deg": 53.2173,
      "raan_deg": 287.8866,
      "arg_perigee_deg": 96.339,
      "mean_anomaly_deg": 263.7831,
      "mean_motion_rev_day": 15.08832572
    }
  ]
}